[{"OBJECT_NAME":"HAWK-11A","OBJECT_ID":"2024-247F","EPOCH":"2026-03-09T12:17:43.893312","MEAN_MOTION":15.28849427,"ECCENTRICITY":0.00054663,"INCLINATION":44.9941,"RA_OF_ASC_NODE":114.3328,"ARG_OF_PERICENTER":327.3713,"MEAN_ANOMALY":32.6832,"EPHEMERIS_TYPE":0,"CLASSIFICATION_TYPE":"U","NORAD_CAT_ID":62382,"ELEMENT_SET_NO":999,"REV_AT_EPOCH":6774,"BSTAR":0.00034106017,"MEAN_MOTION_DOT":9.457e-5,"MEAN_MOTION_DDOT":0},{"OBJECT_NAME":"STARLINK-35511","OBJECT_ID":"2025-253AB","EPOCH":"2026-03-09T11:02:20.178528","MEAN_MOTION":15.27591717,"ECCENTRICITY":0.00014518,"INCLINATION":43.0017,"RA_OF_ASC_NODE":213.4255,"ARG_OF_PERICENTER":243.6652,"MEAN_ANOMALY":116.405,"EPHEMERIS_TYPE":0,"CLASSIFICATION_TYPE":"U","NORAD_CAT_ID":66344,"ELEMENT_SET_NO":999,"REV_AT_EPOCH":2021,"BSTAR":0.0011744517,"MEAN_MOTION_DOT":0.00032209,"MEAN_MOTION_DDOT":0}]
